{
    "links": {
        "self": "http://www.neowsapp.com/rest/v1/neo/3313975?api_key=iIulBulltgU6a56xZRHN4H3l9WmuAYTsLGpBGhQ2"
    },
    "id": "3313975",
    "neo_reference_id": "3313975",
    "name": "(2006 BW39)",
    "designation": "2006 BW39",
    "nasa_jpl_url": "http://ssd.jpl.nasa.gov/sbdb.cgi?sstr=3313975",
    "absolute_magnitude_h": 23.7,
    "estimated_diameter": {
        "kilometers": {
            "estimated_diameter_min": 0.0483676488,
            "estimated_diameter_max": 0.1081533507
        },
        "meters": {
            "estimated_diameter_min": 48.3676488219,
            "estimated_diameter_max": 108.1533506775
        },
        "miles": {
            "estimated_diameter_min": 0.0300542543,
            "estimated_diameter_max": 0.0672033557
        },
        "feet": {
            "estimated_diameter_min": 158.6865169607,
            "estimated_diameter_max": 354.8338390368
        }
    },
    "is_potentially_hazardous_asteroid": false,
    "close_approach_data": [
        {
            "close_approach_date": "2006-02-01",
            "close_approach_date_full": "2006-Feb-01 23:43",
            "epoch_date_close_approach": 1138837380000,
            "relative_velocity": {
                "kilometers_per_second": "11.5215809345",
                "kilometers_per_hour": "41477.6913642187",
                "miles_per_hour": "25772.6243923947"
            },
            "miss_distance": {
                "astronomical": "0.0313200416",
                "lunar": "12.1834961824",
                "kilometers": "4685411.511671392",
                "miles": "2911379.7108815296"
            },
            "orbiting_body": "Earth"
        }
    ],
    "orbital_data": {
        "orbit_id": "12",
        "orbit_determination_date": "2017-04-06 09:09:17",
        "first_observation_date": "2006-01-26",
        "last_observation_date": "2006-01-31",
        "data_arc_in_days": 5,
        "observations_used": 38,
        "orbit_uncertainty": "8",
        "minimum_orbit_intersection": ".0158382",
        "jupiter_tisserand_invariant": "3.667",
        "epoch_osculation": "2453763.5",
        "eccentricity": ".5364886890338272",
        "semi_major_axis": "1.976582292836318",
        "inclination": "5.795705573777085",
        "ascending_node_longitude": "308.1050135781584",
        "orbital_period": "1015.011066962486",
        "perihelion_distance": ".9161682497850856",
        "perihelion_argument": "227.1020460804196",
        "aphelion_distance": "3.036996335887551",
        "perihelion_time": "2453799.639970997827",
        "mean_anomaly": "347.182021967354",
        "mean_motion": ".3546759357780533",
        "equinox": "J2000",
        "orbit_class": {
            "orbit_class_type": "APO",
            "orbit_class_description": "Near-Earth asteroid orbits which cross the Earth’s orbit similar to that of 1862 Apollo",
            "orbit_class_range": "a (semi-major axis) > 1.0 AU; q (perihelion) < 1.017 AU"
        }
    },
    "is_sentry_object": false
}